0 CHUANG XIN 1-03
1 37930U 11068A   13282.22009844  .00000063  00000-0  41369-4 0  1058
2 37930 098.4476 284.8446 0016072 047.8305 312.4231 14.29426887100829
0 CHUANG XIN 1-03
1 37930U 11068A   13282.50009103  .00000058  00000-0  39374-4 0  1065
2 37930 098.4478 285.1163 0016060 047.0749 313.1779 14.29426898100863
0 CHUANG XIN 1-03
1 37930U 11068A   13282.85008184  .00000053  00000-0  37527-4 0  1075
2 37930 098.4479 285.4557 0016033 046.1037 314.1470 14.29426879100918
0 CHUANG XIN 1-03
1 37930U 11068A   13283.20007236  .00000048  00000-0  35443-4 0  1082
2 37930 098.4479 285.7951 0016034 045.0658 315.1822 14.29426892100969
0 CHUANG XIN 1-03
1 37930U 11068A   13283.34006858  .00000049  00000-0  35629-4 0  1094
2 37930 098.4478 285.9309 0016030 044.7461 315.5015 14.29426933100987
0 CHUANG XIN 1-03
1 37930U 11068A   13283.69005898  .00000048  00000-0  35308-4 0  1098
2 37930 098.4481 286.2707 0016029 043.6764 316.5676 14.29426962101032
0 CHUANG XIN 1-03
1 37930U 11068A   13283.90005344  .00000051  00000-0  36444-4 0  1106
2 37930 098.4481 286.4742 0016004 043.1125 317.1313 14.29427037101064
0 CHUANG XIN 1-03
1 37930U 11068A   13284.18004565  .00000050  00000-0  36088-4 0  1115
2 37930 098.4480 286.7458 0016008 042.2615 317.9797 14.29427096101102
0 CHUANG XIN 1-03
1 37930U 11068A   13284.53003611  .00000047  00000-0  35116-4 0  1123
2 37930 098.4479 287.0851 0015992 041.3528 318.8865 14.29427150101157
0 CHUANG XIN 1-03
1 37930U 11068A   13285.51000943  .00000037  00000-0  30887-4 0  1159
2 37930 098.4482 288.0357 0015969 038.6769 321.5555 14.29427191101290
0 CHUANG XIN 1-03
1 37930U 11068A   13285.86000004  .00000032  00000-0  29121-4 0  1160
2 37930 098.4485 288.3753 0015944 037.6617 322.5682 14.29427166101340
0 CHUANG XIN 1-03
1 37930U 11068A   13286.20999036  .00000032  00000-0  28929-4 0  1177
2 37930 098.4485 288.7148 0015940 036.7062 323.5216 14.29427246101390
0 CHUANG XIN 1-03
1 37930U 11068A   13286.55998056  .00000036  00000-0  30582-4 0  1189
2 37930 098.4485 289.0544 0015932 035.7382 324.4869 14.29427363101449
0 CHUANG XIN 1-03
1 37930U 11068A   13286.90997091  .00000041  00000-0  32677-4 0  1190
2 37930 098.4486 289.3937 0015937 034.6900 325.5322 14.29427454101490
0 CHUANG XIN 1-03
1 37930U 11068A   13287.18996293  .00000043  00000-0  33392-4 0  1203
2 37930 098.4486 289.6652 0015943 033.8267 326.3930 14.29427554101531
0 CHUANG XIN 1-03
1 37930U 11068A   13287.53995314  .00000049  00000-0  35756-4 0  1218
2 37930 098.4486 290.0047 0015941 032.9619 327.2558 14.29427698101584
0 CHUANG XIN 1-03
1 37930U 11068A   13287.88994340  .00000061  00000-0  40395-4 0  1224
2 37930 098.4488 290.3441 0015942 031.8671 328.3480 14.29427856101632
0 CHUANG XIN 1-03
1 37930U 11068A   13288.23993338  .00000067  00000-0  42970-4 0  1238
2 37930 098.4487 290.6835 0015907 030.8605 329.3522 14.29428041101688
0 CHUANG XIN 1-03
1 37930U 11068A   13288.51992519  .00000068  00000-0  43342-4 0  1245
2 37930 098.4488 290.9551 0015895 030.2203 329.9892 14.29428115101724
0 CHUANG XIN 1-03
1 37930U 11068A   13288.86991537  .00000072  00000-0  44925-4 0  1256
2 37930 098.4490 291.2946 0015892 029.1836 331.0230 14.29428209101774
0 CHUANG XIN 1-03
1 37930U 11068A   13289.21990549  .00000070  00000-0  43994-4 0  1262
2 37930 098.4488 291.6340 0015881 028.1888 332.0151 14.29428273101827
0 CHUANG XIN 1-03
1 37930U 11068A   13289.49989751  .00000067  00000-0  42954-4 0  1277
2 37930 098.4491 291.9058 0015872 027.4856 332.7158 14.29428297101861
0 CHUANG XIN 1-03
1 37930U 11068A   13289.84988802  .00000059  00000-0  39811-4 0  1282
2 37930 098.4490 292.2452 0015847 026.5260 333.6733 14.29428242101918
0 CHUANG XIN 1-03
1 37930U 11068A   13290.19987796  .00000061  00000-0  40478-4 0  1298
2 37930 098.4490 292.5846 0015838 025.4729 334.7234 14.29428358101967
0 CHUANG XIN 1-03
1 37930U 11068A   13290.33987392  .00000064  00000-0  41747-4 0  1301
2 37930 098.4489 292.7204 0015831 025.1351 335.0603 14.29428431101984
0 CHUANG XIN 1-03
1 37930U 11068A   13290.68986379  .00000066  00000-0  42340-4 0  1316
2 37930 098.4491 293.0600 0015829 024.1623 336.0294 14.29428511102032
0 CHUANG XIN 1-03
1 37930U 11068A   13290.89985789  .00000075  00000-0  45836-4 0  1327
2 37930 098.4491 293.2637 0015816 023.5649 336.6270 14.29428683102064
0 CHUANG XIN 1-03
1 37930U 11068A   13291.17984949  .00000073  00000-0  45291-4 0  1330
2 37930 098.4491 293.5353 0015809 022.6693 337.5184 14.29428748102104
0 CHUANG XIN 1-03
1 37930U 11068A   13291.52983923  .00000080  00000-0  47853-4 0  1345
2 37930 098.4491 293.8748 0015763 021.8961 338.2893 14.29428925102150
0 CHUANG XIN 1-03
1 37930U 11068A   13291.87982909  .00000094  00000-0  53339-4 0  1358
2 37930 098.4495 294.2145 0015764 020.9134 339.2696 14.29429135102205
0 CHUANG XIN 1-03
1 37930U 11068A   13292.22981878  .00000092  00000-0  52496-4 0  1364
2 37930 098.4494 294.5540 0015752 019.8876 340.2918 14.29429220102252
0 CHUANG XIN 1-03
1 37930U 11068A   13292.50981058  .00000092  00000-0  52563-4 0  1371
2 37930 098.4493 294.8255 0015724 019.1124 341.0645 14.29429303102297
0 CHUANG XIN 1-03
1 37930U 11068A   13292.85980054  .00000096  00000-0  54136-4 0  1387
2 37930 098.4492 295.1648 0015703 018.0845 342.0903 14.29429427102342
0 CHUANG XIN 1-03
1 37930U 11068A   13293.20979010  .00000093  00000-0  53175-4 0  1397
2 37930 098.4492 295.5041 0015708 017.0429 343.1278 14.29429509102398
0 CHUANG XIN 1-03
1 37930U 11068A   13293.55977981  .00000096  00000-0  54320-4 0  1408
2 37930 098.4491 295.8435 0015696 016.0882 344.0799 14.29429648102443
0 CHUANG XIN 1-03
1 37930U 11068A   13293.83977163  .00000096  00000-0  54124-4 0  1414
2 37930 098.4491 296.1150 0015675 015.2997 344.8660 14.29429708102482
0 CHUANG XIN 1-03
1 37930U 11068A   13294.18976093  .00000105  00000-0  57575-4 0  1429
2 37930 098.4492 296.4545 0015667 014.2159 345.9465 14.29429945102538
0 CHUANG XIN 1-03
1 37930U 11068A   13294.53975038  .00000109  00000-0  59159-4 0  1431
2 37930 098.4491 296.7940 0015646 013.2857 346.8737 14.29430112102585
0 CHUANG XIN 1-03
1 37930U 11068A   13294.88974005  .00000115  00000-0  61735-4 0  1443
2 37930 098.4491 297.1334 0015610 012.3184 347.8384 14.29430260102630
0 CHUANG XIN 1-03
1 37930U 11068A   13295.23972926  .00000120  00000-0  63633-4 0  1459
2 37930 098.4491 297.4729 0015599 011.2710 348.8818 14.29430440102688
0 CHUANG XIN 1-03
1 37930U 11068A   13295.51972079  .00000117  00000-0  62530-4 0  1461
2 37930 098.4491 297.7444 0015553 010.5656 349.5846 14.29430499102724
0 CHUANG XIN 1-03
1 37930U 11068A   13295.86971066  .00000112  00000-0  60397-4 0  1479
2 37930 098.4490 298.0836 0015495 009.6479 350.4998 14.29430488102771
0 CHUANG XIN 1-03
1 37930U 11068A   13296.21970006  .00000107  00000-0  58427-4 0  1488
2 37930 098.4489 298.4231 0015478 008.6392 351.5050 14.29430559102822
